CTC2_L_00092016-03
1 16211U 25567DL  26070.40842593  .00000000  00000+0  00000-0 0  9995
2 16211  80.0000 180.0000 0000000   0.0000   0.0000 15.18623435    19
CTC2_L_00092016-04
1 16212U 23019HC  26070.40842593  .00000000  00000+0  00000-0 0  9996
2 16212  80.0000 180.0000 0000000   0.0000  90.0000 15.18623435    19
CTC2_L_00092017-01
1 16213U 24874RX  26070.40842593  .00000000  00000+0  00000-0 0  9997
2 16213  80.0000 192.0000 0000000   0.0000 192.0000 15.18623435    16
CTC2_L_00092017-02
1 16214U 23624YY  26070.40842593  .00000000  00000+0  00000-0 0  9990
2 16214  80.0000 192.0000 0000000   0.0000 282.0000 15.18623435    17
CTC2_L_00092017-03
1 16215U 26777LC  26070.40842593  .00000000  00000+0  00000-0 0  9993
2 16215  80.0000 192.0000 0000000   0.0000  12.0000 15.18623435    19
CTC2_L_00092017-04
1 16216U 24121IC  26070.40842593  .00000000  00000+0  00000-0 0  9995
2 16216  80.0000 192.0000 0000000   0.0000 102.0000 15.18623435    10
CTC2_L_00092018-01
1 16217U 23861EK  26070.40842593  .00000000  00000+0  00000-0 0  9996
2 16217  80.0000 204.0000 0000000   0.0000 204.0000 15.18623435    18
CTC2_L_00092018-02
1 16218U 22533ST  26070.40842593  .00000000  00000+0  00000-0 0  9992
2 16218  80.0000 204.0000 0000000   0.0000 294.0000 15.18623435    18
CTC2_L_00092018-03
1 16219U 22262KI  26070.40842593  .00000000  00000+0  00000-0 0  9992
2 16219  80.0000 204.0000 0000000   0.0000  24.0000 15.18623435    10
CTC2_L_00092018-04
1 16220U 26244BS  26070.40842593  .00000000  00000+0  00000-0 0  9998
2 16220  80.0000 204.0000 0000000   0.0000 114.0000 15.18623435    12
CTC2_L_00092019-01
1 16221U 22084YO  26070.40842593  .00000000  00000+0  00000-0 0  9997
2 16221  80.0000 216.0000 0000000   0.0000 216.0000 15.18623435    19
CTC2_L_00092019-02
1 16222U 24594LJ  26070.40842593  .00000000  00000+0  00000-0 0  9996
2 16222  80.0000 216.0000 0000000   0.0000 306.0000 15.18623435    10
CTC2_L_00092019-03
1 16223U 25519QS  26070.40842593  .00000000  00000+0  00000-0 0  9995
2 16223  80.0000 216.0000 0000000   0.0000  36.0000 15.18623435    11
CTC2_L_00092019-04
1 16224U 25690FX  26070.40842593  .00000000  00000+0  00000-0 0  9996
2 16224  80.0000 216.0000 0000000   0.0000 126.0000 15.18623435    12
CTC2_L_00092020-01
1 16225U 25263SV  26070.40842593  .00000000  00000+0  00000-0 0  9993
2 16225  80.0000 228.0000 0000000   0.0000 228.0000 15.18623435    19
CTC2_L_00092020-02
1 16226U 22478YB  26070.40842593  .00000000  00000+0  00000-0 0  9999
2 16226  80.0000 228.0000 0000000   0.0000 318.0000 15.18623435    10
CTC2_L_00092020-03
1 16227U 26822ZH  26070.40842593  .00000000  00000+0  00000-0 0  9997
2 16227  80.0000 228.0000 0000000   0.0000  48.0000 15.18623435    11
CTC2_L_00092020-04
1 16228U 26989MG  26070.40842593  .00000000  00000+0  00000-0 0  9992
2 16228  80.0000 228.0000 0000000   0.0000 138.0000 15.18623435    12
CTC2_L_00092021-01
1 16229U 23767Q   26070.40842593  .00000000  00000+0  00000-0 0  9994
2 16229  80.0000 240.0000 0000000   0.0000 240.0000 15.18623435    11
CTC2_L_00092021-02
1 16230U 24937WB  26070.40842593  .00000000  00000+0  00000-0 0  9996
2 16230  80.0000 240.0000 0000000   0.0000 330.0000 15.18623435    13
CTC2_L_00092021-03
1 16231U 23345IN  26070.40842593  .00000000  00000+0  00000-0 0  9999
2 16231  80.0000 240.0000 0000000   0.0000  60.0000 15.18623435    14
CTC2_L_00092021-04
1 16232U 25112DU  26070.40842593  .00000000  00000+0  00000-0 0  9994
2 16232  80.0000 240.0000 0000000   0.0000 150.0000 15.18623435    15
CTC2_L_00092022-01
1 16233U 25698HM  26070.40842593  .00000000  00000+0  00000-0 0  9994
2 16233  80.0000 252.0000 0000000   0.0000 252.0000 15.18623435    12
CTC2_L_00092022-02
1 16234U 25919AO  26070.40842593  .00000000  00000+0  00000-0 0  9991
2 16234  80.0000 252.0000 0000000   0.0000 342.0000 15.18623435    13
CTC2_L_00092022-03
1 16235U 25569CP  26070.40842593  .00000000  00000+0  00000-0 0  9993
2 16235  80.0000 252.0000 0000000   0.0000  72.0000 15.18623435    14
CTC2_L_00092022-04
1 16236U 24697LB  26070.40842593  .00000000  00000+0  00000-0 0  9995
2 16236  80.0000 252.0000 0000000   0.0000 162.0000 15.18623435    15
CTC2_L_00092023-01
1 16237U 23644UP  26070.40842593  .00000000  00000+0  00000-0 0  9997
2 16237  80.0000 264.0000 0000000   0.0000 264.0000 15.18623435    12
CTC2_L_00092023-02
1 16238U 23814VI  26070.40842593  .00000000  00000+0  00000-0 0  9997
2 16238  80.0000 264.0000 0000000   0.0000 354.0000 15.18623435    13
CTC2_L_00092023-03
1 16239U 24595YI  26070.40842593  .00000000  00000+0  00000-0 0  9995
2 16239  80.0000 264.0000 0000000   0.0000  84.0000 15.18623435    14
CTC2_L_00092023-04
1 16240U 25906AM  26070.40842593  .00000000  00000+0  00000-0 0  9994
2 16240  80.0000 264.0000 0000000   0.0000 174.0000 15.18623435    16
CTC2_L_00092024-01
1 16241U 26919UT  26070.40842593  .00000000  00000+0  00000-0 0  9990
2 16241  80.0000 276.0000 0000000   0.0000 276.0000 15.18623435    13
CTC2_L_00092024-02
1 16242U 26053QR  26070.40842593  .00000000  00000+0  00000-0 0  9990
2 16242  80.0000 276.0000 0000000   0.0000   6.0000 15.18623435    15
CTC2_L_00092024-03
1 16243U 22529NZ  26070.40842593  .00000000  00000+0  00000-0 0  9995
2 16243  80.0000 276.0000 0000000   0.0000  96.0000 15.18623435    15
CTC2_L_00092024-04
1 16244U 26474GJ  26070.40842593  .00000000  00000+0  00000-0 0  9999
2 16244  80.0000 276.0000 0000000   0.0000 186.0000 15.18623435    16
CTC2_L_00092025-01
1 16245U 24693IB  26070.40842593  .00000000  00000+0  00000-0 0  9991
2 16245  80.0000 288.0000 0000000   0.0000 288.0000 15.18623435    13
CTC2_L_00092025-02
1 16246U 22248GV  26070.40842593  .00000000  00000+0  00000-0 0  9996
2 16246  80.0000 288.0000 0000000   0.0000  18.0000 15.18623435    15
CTC2_L_00092025-03
1 16247U 22360EF  26070.40842593  .00000000  00000+0  00000-0 0  9992
2 16247  80.0000 288.0000 0000000   0.0000 108.0000 15.18623435    16
CTC2_L_00092025-04
1 16248U 24992KN  26070.40842593  .00000000  00000+0  00000-0 0  9996
2 16248  80.0000 288.0000 0000000   0.0000 198.0000 15.18623435    16
CTC2_L_00092026-01
1 16249U 22448GO  26070.40842593  .00000000  00000+0  00000-0 0  9991
2 16249  80.0000 300.0000 0000000   0.0000 300.0000 15.18623435    17
CTC2_L_00092026-02
1 16250U 26769MD  26070.40842593  .00000000  00000+0  00000-0 0  9993
2 16250  80.0000 300.0000 0000000   0.0000  30.0000 15.18623435    19
CTC2_L_00092026-03
1 16251U 22984UJ  26070.40842593  .00000000  00000+0  00000-0 0  9999
2 16251  80.0000 300.0000 0000000   0.0000 120.0000 15.18623435    10
CTC2_L_00092026-04
1 16252U 26289Q   26070.40842593  .00000000  00000+0  00000-0 0  9992
2 16252  80.0000 300.0000 0000000   0.0000 210.0000 15.18623435    11
CTC2_L_00092027-01
1 16253U 26866ET  26070.40842593  .00000000  00000+0  00000-0 0  9994
2 16253  80.0000 312.0000 0000000   0.0000 312.0000 15.18623435    18
CTC2_L_00092027-02
1 16254U 23471EQ  26070.40842593  .00000000  00000+0  00000-0 0  9994
2 16254  80.0000 312.0000 0000000   0.0000  42.0000 15.18623435    19
CTC2_L_00092027-03
1 16255U 24795OH  26070.40842593  .00000000  00000+0  00000-0 0  9995
2 16255  80.0000 312.0000 0000000   0.0000 132.0000 15.18623435    10
CTC2_L_00092027-04
1 16256U 26048FL  26070.40842593  .00000000  00000+0  00000-0 0  9999
2 16256  80.0000 312.0000 0000000   0.0000 222.0000 15.18623435    11
CTC2_L_00092028-01
1 16257U 24740WL  26070.40842593  .00000000  00000+0  00000-0 0  9997
2 16257  80.0000 324.0000 0000000   0.0000 324.0000 15.18623435    18
CTC2_L_00092028-02
1 16258U 25355DK  26070.40842593  .00000000  00000+0  00000-0 0  9991
2 16258  80.0000 324.0000 0000000   0.0000  54.0000 15.18623435    19
CTC2_L_00092028-03
1 16259U 26404RD  26070.40842593  .00000000  00000+0  00000-0 0  9998
2 16259  80.0000 324.0000 0000000   0.0000 144.0000 15.18623435    10
CTC2_L_00092028-04
1 16260U 25371RS  26070.40842593  .00000000  00000+0  00000-0 0  9992
2 16260  80.0000 324.0000 0000000   0.0000 234.0000 15.18623435    12
CTC2_L_00092029-01
1 16261U 22332PY  26070.40842593  .00000000  00000+0  00000-0 0  9997
2 16261  80.0000 336.0000 0000000   0.0000 336.0000 15.18623435    19
CTC2_L_00092029-02
1 16262U 23610CK  26070.40842593  .00000000  00000+0  00000-0 0  9998
2 16262  80.0000 336.0000 0000000   0.0000  66.0000 15.18623435    10
CTC2_L_00092029-03
1 16263U 26484JK  26070.40842593  .00000000  00000+0  00000-0 0  9991
2 16263  80.0000 336.0000 0000000   0.0000 156.0000 15.18623435    11
CTC2_L_00092029-04
1 16264U 24106AQ  26070.40842593  .00000000  00000+0  00000-0 0  9991
2 16264  80.0000 336.0000 0000000   0.0000 246.0000 15.18623435    12
CTC2_L_00092030-01
1 16265U 25717JH  26070.40842593  .00000000  00000+0  00000-0 0  9991
2 16265  80.0000 348.0000 0000000   0.0000 348.0000 15.18623435    19
CTC2_L_00092030-02
1 16266U 24958IF  26070.40842593  .00000000  00000+0  00000-0 0  9998
2 16266  80.0000 348.0000 0000000   0.0000  78.0000 15.18623435    10
CTC2_L_00092030-03
1 16267U 25594ER  26070.40842593  .00000000  00000+0  00000-0 0  9996
2 16267  80.0000 348.0000 0000000   0.0000 168.0000 15.18623435    11
CTC2_L_00092030-04
1 16268U 25763HZ  26070.40842593  .00000000  00000+0  00000-0 0  9995
2 16268  80.0000 348.0000 0000000   0.0000 258.0000 15.18623435    12
